QZS-2 (QZSS/PRN 184)    
1 42738U 17028A   17316.25647874 -.00000271  00000-0  00000+0 0  9993
2 42738  44.5571 287.5595 0734529 271.5494  79.9832  1.00251062  1674
